YAOGAN-25 01C           
1 40340U 14080C   26044.22793275  .00000045  00000+0  15660-3 0  9996
2 40340  63.3874 270.6216 0355902   9.0215 351.6984 13.45336861549070
SHIJIAN-15 (SJ-15)      
1 39210U 13037C   26044.19361572  .00000878  00000+0  15018-3 0  9999
2 39210  98.1042  47.7295 0006256 170.1454 189.9877 14.71307622676096
SHIJIAN-16 (SJ-16)      
1 39358U 13057A   26044.22591341  .00001814  00000+0  18021-3 0  9995
2 39358  74.9706 231.3970 0016607 174.0689 186.0699 14.92253283667853
SHIJIAN-23 (SJ-23)      
1 55131U 23002A   26043.72138757 -.00000356  00000+0  00000+0 0  9990
2 55131   3.3968  79.9323 0005703 259.4055 176.9257  1.00499249 11269
SHIJIAN-6 01A (SJ-6 01A)
1 28413U 04035A   26044.03000556  .00008745  00000+0  45894-3 0  9991
2 28413  97.6009  70.8954 0005974 190.4304 169.6806 15.15963035168649
SHIJIAN-6 01B (SJ-6 01B)
1 28414U 04035B   26044.19331866  .00003298  00000+0  23347-3 0  9997
2 28414  97.6158  63.6676 0004425 187.5656 172.5504 15.05518867168166
SHIJIAN-6 02A (SJ-6 02A)
1 29505U 06046A   26044.14953240  .00007270  00000+0  38925-3 0  9996
2 29505  97.6550  84.3160 0002935 176.8055 183.3196 15.15329011 53476
SHIJIAN-6 02B (SJ-6 02B)
1 29506U 06046B   26044.23127559  .00002605  00000+0  20916-3 0  9991
2 29506  97.7021  74.1753 0013914 119.2081 241.0537 15.00871154 52143
SHIJIAN-6 03A (SJ-6 03A)
1 33408U 08053A   26044.19847206  .00005163  00000+0  27430-3 0  9990
2 33408  97.8575  73.2403 0013339  80.7320 279.5419 15.15700766944179
SHIJIAN-6 03B (SJ-6 03B)
1 33409U 08053B   26044.22459491  .00001478  00000+0  11205-3 0  9998
2 33409  97.8679  62.0494 0021720  98.4041 261.9647 15.03689078944111
SHIJIAN-6 04A (SJ-6 04A)
1 37179U 10051A   26044.22995436  .00008131  00000+0  42249-3 0  9996
2 37179  97.8402  63.2405 0017391 295.3134  64.6296 15.16239508838155
SHIJIAN-6 04B (SJ-6 04B)
1 37180U 10051B   26044.14606777  .00001765  00000+0  15048-3 0  9999
2 37180  97.8702  48.2868 0010023  16.2886 343.8656 14.99027655837097
SHIJIAN-6 05A (SJ-6 05A)
1 49961U 21122A   26043.65075708  .00002412  00000+0  20403-3 0  9990
2 49961  97.3922  18.3844 0001411 117.3424 242.7943 14.98924451230092
SHIJIAN-6 05B (SJ-6 05B)
1 49962U 21122B   26043.66390402  .00002218  00000+0  13541-3 0  9992
2 49962  97.3680  28.6312 0003325  96.6999 263.4610 15.11296865230931
SJ 16-02                
1 41634U 16043A   26044.20620962  .00002216  00000+0  21504-3 0  9990
2 41634  75.0037 153.5980 0007968 329.0481  31.0237 14.93137493522638
TIANHUI 2-01A           
1 44207U 19024A   26043.60340648  .00001614  00000+0  85752-4 0  9991
2 44207  97.4807  49.1920 0001520 113.2714 246.8679 15.16716470 83254
TIANHUI 2-01B           
1 44209U 19024C   26043.60340786  .00002245  00000+0  11797-3 0  9994
2 44209  97.4807  49.1899 0001957  97.6447 262.5008 15.16717230375826
TIANHUI 1-04            
1 49049U 21067A   26044.18805204  .00000148  00000+0  90719-5 0  9999
2 49049  97.2918 115.9443 0001747  88.7870 271.3567 15.23312046252713
TIANHUI 2-02A           
1 49071U 21074A   26043.57389559  .00002230  00000+0  11710-3 0  9990
2 49071  97.4814  48.4412 0001805 111.9017 248.2408 15.16744299248384
TIANHUI 2-02B           
1 49072U 21074B   26043.57389609  .00002267  00000+0  11901-3 0  9999
2 49072  97.4812  48.4369 0001974  96.9539 263.1918 15.16744489248385
TIANHUI 4A              
1 50572U 21134A   26044.17808448  .00008651  00000+0  18482-3 0  9991
2 50572  88.9803 340.3049 0007826 176.2521 183.8798 15.44673887230717
TIANHUI 4B              
1 50573U 21134B   26044.17836058  .00008517  00000+0  18200-3 0  9999
2 50573  88.9801 340.2904 0007117 179.6875 180.4390 15.44670967230680
TIANHUI 6A              
1 55836U 23030A   26044.20146196 -.00000214  00000+0 -11261-3 0  9992
2 55836  99.0163  53.9757 0000508  15.9246 344.1935 14.01344378150036
TIANHUI 6B              
1 55839U 23030D   26044.20141326 -.00000194  00000+0 -99452-4 0  9991
2 55839  99.0165  53.9746 0000943  91.5460 268.5813 14.01343174150026
TIANHUI 5A              
1 58199U 23168A   26043.56982366  .00000421  00000+0  52271-4 0  9999
2 58199  97.8213  52.7223 0001559  90.0905 270.0490 14.87581342124077
TIANHUI 5B              
1 58201U 23168C   26043.56982517  .00000419  00000+0  52118-4 0  9998
2 58201  97.8211  52.7264 0002108  93.7704 266.3753 14.87581172124073
TIANHUI 5C              
1 60211U 24126A   26043.59275966  .00000549  00000+0  66387-4 0  9990
2 60211  97.8225  52.9263 0001857 108.5971 251.5447 14.87583327 87364
TIANHUI 5D              
1 60212U 24126B   26043.59276233  .00000749  00000+0  88380-4 0  9998
2 60212  97.8197  52.9269 0001957  73.0007 287.1424 14.87583902 87376
HAIYANG-1C              
1 43609U 18068A   26044.19869174  .00000021  00000+0  23028-4 0  9997
2 43609  98.5329 118.2400 0012002 101.6703 258.5830 14.34135205389312
HAIYANG-1D              
1 45721U 20036A   26044.13915325  .00000406  00000+0  16027-3 0  9993
2 45721  98.4431 348.5938 0002884 136.6234 223.5178 14.34191140297191
HAIYANG-3A              
1 58349U 23176A   26044.19027154  .00000143  00000+0  66885-4 0  9997
2 58349  98.5569 123.5264 0010190  38.7622 321.4292 14.34130143117540
HAIYANG 4-01            
1 61936U 24208A   26044.17816911  .00000631  00000+0  10532-3 0  9994
2 61936  98.0072  53.6132 0001182 133.2069 226.9238 14.73292708 67186
HUANJING 1A (HJ-1A)     
1 33320U 08041A   26044.22132005  .00001587  00000+0  19790-3 0  9994
2 33320  97.6602  34.9433 0018768 180.7886 179.3302 14.83638422940028
HUANJING 1B (HJ-1B)     
1 33321U 08041B   26044.20455362  .00001877  00000+0  23464-3 0  9992
2 33321  97.6452  38.4573 0035181 229.0737 130.7430 14.83039251940035
HJ-2A                   
1 46478U 20067A   26044.21953215  .00000595  00000+0  92603-4 0  9990
2 46478  97.8921 125.4817 0002143 317.8451  42.2594 14.76511469289968
HJ-2B                   
1 46479U 20067B   26044.05259736  .00001023  00000+0  15376-3 0  9998
2 46479  97.8978 126.2471 0001375  96.6473 263.4894 14.76581858289945
HJ-2E                   
1 54035U 22132A   26044.17353441  .00008880  00000+0  40864-3 0  9999
2 54035  97.3823  50.9466 0023268  83.9630 276.4256 15.20310391185563
HJ-2F                   
1 57519U 23116A   26044.20667135  .00008226  00000+0  38118-3 0  9997
2 57519  97.3875  51.7447 0010965 112.0171 248.2230 15.20287597139909
